start=new Date('2022-06-14T00:00:00.000Z').valueOf();
sats=[{"LAUNCH_DATE":"2020-04-22","MEAN_MOTION_DOT":"0.00001492","TIME_SYSTEM":"UTC","PERIOD":"95.592","SEMIMAJOR_AXIS":"6925.324","NORAD_CAT_ID":"45544","FILE":"3494620","MEAN_MOTION_DDOT":"0.0000000000000","INCLINATION":"53.0558","OBJECT_ID":"2020-025P","ELEMENT_SET_NO":"999","OBJECT_TYPE":"PAYLOAD","TLE_LINE2":"2 45544  53.0558 116.1955 0001456  69.3166 290.7979 15.06408155119295","COUNTRY_CODE":"US","EPHEMERIS_TYPE":"0","SITE":"AFETR","REF_FRAME":"TEME","DECAY_DATE":null,"MEAN_ANOMALY":"290.7979","PERIAPSIS":"546.180","ECCENTRICITY":"0.00014560","CLASSIFICATION_TYPE":"U","OBJECT_NAME":"STARLINK-1373","APOAPSIS":"548.197","RA_OF_ASC_NODE":"116.1955","TLE_LINE1":"1 45544U 20025P   22164.27821145  .00001492  00000-0  11902-3 0  9998","RCS_SIZE":"LARGE","EPOCH":"2022-06-13T06:40:37.469280","MEAN_MOTION":"15.06408155","CENTER_NAME":"EARTH","BSTAR":"0.00011902000000","GP_ID":"206057596","MEAN_ELEMENT_THEORY":"SGP4","ARG_OF_PERICENTER":"69.3166","REV_AT_EPOCH":"11929"},{"RA_OF_ASC_NODE":"114.9061","RCS_SIZE":"LARGE","TLE_LINE1":"1 45545U 20025Q   22164.56203305  .00001098  00000-0  92625-4 0  9997","EPOCH":"2022-06-13T13:29:19.655520","OBJECT_NAME":"STARLINK-1374","APOAPSIS":"548.713","ECCENTRICITY":"0.00021680","CLASSIFICATION_TYPE":"U","MEAN_ANOMALY":"298.4970","PERIAPSIS":"545.710","REV_AT_EPOCH":"11875","ARG_OF_PERICENTER":"61.6237","BSTAR":"0.00009262500000","GP_ID":"206066121","MEAN_ELEMENT_THEORY":"SGP4","MEAN_MOTION":"15.06400764","CENTER_NAME":"EARTH","MEAN_MOTION_DDOT":"0.0000000000000","INCLINATION":"53.0553","OBJECT_ID":"2020-025Q","SEMIMAJOR_AXIS":"6925.346","FILE":"3494807","NORAD_CAT_ID":"45545","MEAN_MOTION_DOT":"0.00001098","TIME_SYSTEM":"UTC","PERIOD":"95.592","LAUNCH_DATE":"2020-04-22","REF_FRAME":"TEME","DECAY_DATE":null,"EPHEMERIS_TYPE":"0","SITE":"AFETR","COUNTRY_CODE":"US","ELEMENT_SET_NO":"999","TLE_LINE2":"2 45545  53.0553 114.9061 0002168  61.6237 298.4970 15.06400764118754","OBJECT_TYPE":"PAYLOAD"},{"DECAY_DATE":null,"REF_FRAME":"TEME","SITE":"AFETR","EPHEMERIS_TYPE":"0","COUNTRY_CODE":"US","TLE_LINE2":"2 45546  53.0560 114.8667 0001618  64.4451 295.6705 15.06404327119331","OBJECT_TYPE":"PAYLOAD","ELEMENT_SET_NO":"999","OBJECT_ID":"2020-025R","INCLINATION":"53.0560","MEAN_MOTION_DDOT":"0.0000000000000","FILE":"3494620","NORAD_CAT_ID":"45546","SEMIMAJOR_AXIS":"6925.335","PERIOD":"95.592","TIME_SYSTEM":"UTC","MEAN_MOTION_DOT":"0.00001200","LAUNCH_DATE":"2020-04-22","ARG_OF_PERICENTER":"64.4451","REV_AT_EPOCH":"11933","MEAN_ELEMENT_THEORY":"SGP4","GP_ID":"206057094","BSTAR":"0.00009944600000","CENTER_NAME":"EARTH","MEAN_MOTION":"15.06404327","EPOCH":"2022-06-13T13:45:15.183360","TLE_LINE1":"1 45546U 20025R   22164.57309240  .00001200  00000-0  99446-4 0  9997","RCS_SIZE":"LARGE","RA_OF_ASC_NODE":"114.8667","APOAPSIS":"548.321","OBJECT_NAME":"STARLINK-1375","CLASSIFICATION_TYPE":"U","ECCENTRICITY":"0.00016180","MEAN_ANOMALY":"295.6705","PERIAPSIS":"546.080"},{"REV_AT_EPOCH":"11875","ARG_OF_PERICENTER":"67.9668","CENTER_NAME":"EARTH","MEAN_MOTION":"15.06404388","MEAN_ELEMENT_THEORY":"SGP4","GP_ID":"206064227","BSTAR":"0.00010537000000","APOAPSIS":"548.416","OBJECT_NAME":"STARLINK-1377","RCS_SIZE":"LARGE","TLE_LINE1":"1 45547U 20025S   22164.56940538  .00001288  00000-0  10537-3 0  9997","EPOCH":"2022-06-13T13:39:56.624832","RA_OF_ASC_NODE":"114.8825","PERIAPSIS":"545.984","MEAN_ANOMALY":"292.1507","CLASSIFICATION_TYPE":"U","ECCENTRICITY":"0.00017560","EPHEMERIS_TYPE":"0","SITE":"AFETR","DECAY_DATE":null,"REF_FRAME":"TEME","ELEMENT_SET_NO":"999","TLE_LINE2":"2 45547  53.0558 114.8825 0001756  67.9668 292.1507 15.06404388118750","OBJECT_TYPE":"PAYLOAD","COUNTRY_CODE":"US","SEMIMAJOR_AXIS":"6925.335","FILE":"3494719","NORAD_CAT_ID":"45547","MEAN_MOTION_DDOT":"0.0000000000000","INCLINATION":"53.0558","OBJECT_ID":"2020-025S","LAUNCH_DATE":"2020-04-22","PERIOD":"95.592","MEAN_MOTION_DOT":"0.00001288","TIME_SYSTEM":"UTC"},{"COUNTRY_CODE":"US","OBJECT_TYPE":"PAYLOAD","TLE_LINE2":"2 45548  53.0552 114.7774 0001849  67.8948 292.2237 15.06398643118757","ELEMENT_SET_NO":"999","REF_FRAME":"TEME","DECAY_DATE":null,"SITE":"AFETR","EPHEMERIS_TYPE":"0","TIME_SYSTEM":"UTC","MEAN_MOTION_DOT":"0.00001248","PERIOD":"95.592","LAUNCH_DATE":"2020-04-22","OBJECT_ID":"2020-025T","INCLINATION":"53.0552","MEAN_MOTION_DDOT":"0.0000000000000","FILE":"3494728","NORAD_CAT_ID":"45548","SEMIMAJOR_AXIS":"6925.353","BSTAR":"0.00010269000000","GP_ID":"206063869","MEAN_ELEMENT_THEORY":"SGP4","MEAN_MOTION":"15.06398643","CENTER_NAME":"EARTH","ARG_OF_PERICENTER":"67.8948","REV_AT_EPOCH":"11875","ECCENTRICITY":"0.00018490","CLASSIFICATION_TYPE":"U","MEAN_ANOMALY":"292.2237","PERIAPSIS":"545.937","RA_OF_ASC_NODE":"114.7774","EPOCH":"2022-06-13T14:17:05.752608","RCS_SIZE":"LARGE","TLE_LINE1":"1 45548U 20025T   22164.59520547  .00001248  00000-0  10269-3 0  9993","OBJECT_NAME":"STARLINK-1378","APOAPSIS":"548.498"},{"MEAN_MOTION":"15.06404741","CENTER_NAME":"EARTH","BSTAR":"-0.00000745870000","MEAN_ELEMENT_THEORY":"SGP4","GP_ID":"206056844","REV_AT_EPOCH":"11928","ARG_OF_PERICENTER":"68.3013","MEAN_ANOMALY":"291.8186","PERIAPSIS":"545.832","ECCENTRICITY":"0.00019740","CLASSIFICATION_TYPE":"U","OBJECT_NAME":"STARLINK-1390","APOAPSIS":"548.566","RA_OF_ASC_NODE":"116.1789","EPOCH":"2022-06-13T06:44:34.823040","TLE_LINE1":"1 45550U 20025V   22164.28095860 -.00000393  00000-0 -74587-5 0  9994","RCS_SIZE":"LARGE","OBJECT_TYPE":"PAYLOAD","TLE_LINE2":"2 45550  53.0542 116.1789 0001974  68.3013 291.8186 15.06404741119283","ELEMENT_SET_NO":"999","COUNTRY_CODE":"US","SITE":"AFETR","EPHEMERIS_TYPE":"0","REF_FRAME":"TEME","DECAY_DATE":null,"LAUNCH_DATE":"2020-04-22","TIME_SYSTEM":"UTC","MEAN_MOTION_DOT":"-0.00000393","PERIOD":"95.592","NORAD_CAT_ID":"45550","FILE":"3494620","SEMIMAJOR_AXIS":"6925.334","OBJECT_ID":"2020-025V","INCLINATION":"53.0542","MEAN_MOTION_DDOT":"0.0000000000000"},{"DECAY_DATE":null,"REF_FRAME":"TEME","EPHEMERIS_TYPE":"0","SITE":"AFETR","COUNTRY_CODE":"US","ELEMENT_SET_NO":"999","OBJECT_TYPE":"PAYLOAD","TLE_LINE2":"2 45551  53.0559  97.0493 0001831  57.8193 302.2974 15.06399325119547","MEAN_MOTION_DDOT":"0.0000000000000","OBJECT_ID":"2020-025W","INCLINATION":"53.0559","SEMIMAJOR_AXIS":"6925.351","FILE":"3494620","NORAD_CAT_ID":"45551","PERIOD":"95.592","MEAN_MOTION_DOT":"0.00000716","TIME_SYSTEM":"UTC","LAUNCH_DATE":"2020-04-22","ARG_OF_PERICENTER":"57.8193","REV_AT_EPOCH":"11954","MEAN_ELEMENT_THEORY":"SGP4","GP_ID":"206056595","BSTAR":"0.00006695000000","CENTER_NAME":"EARTH","MEAN_MOTION":"15.06399325","TLE_LINE1":"1 45551U 20025W   22164.08470423  .00000716  00000-0  66950-4 0  9996","RCS_SIZE":"LARGE","EPOCH":"2022-06-13T02:01:58.445472","RA_OF_ASC_NODE":"97.0493","APOAPSIS":"548.484","OBJECT_NAME":"STARLINK-1294","CLASSIFICATION_TYPE":"U","ECCENTRICITY":"0.00018310","MEAN_ANOMALY":"302.2974","PERIAPSIS":"545.948"},{"OBJECT_ID":"2020-025X","INCLINATION":"53.0434","MEAN_MOTION_DDOT":"0.0000000000000","NORAD_CAT_ID":"45552","FILE":"3494620","SEMIMAJOR_AXIS":"6748.723","TIME_SYSTEM":"UTC","MEAN_MOTION_DOT":"0.00048641","PERIOD":"91.959","LAUNCH_DATE":"2020-04-22","REF_FRAME":"TEME","DECAY_DATE":null,"SITE":"AFETR","EPHEMERIS_TYPE":"0","COUNTRY_CODE":"US","TLE_LINE2":"2 45552  53.0434  29.4688 0008484 162.9543 197.1758 15.65922934120482","OBJECT_TYPE":"PAYLOAD","ELEMENT_SET_NO":"999","RA_OF_ASC_NODE":"29.4688","EPOCH":"2022-06-12T23:53:24.583488","TLE_LINE1":"1 45552U 20025X   22163.99542342  .00048641  00000-0  47038-3 0  9990","RCS_SIZE":"LARGE","OBJECT_NAME":"STARLINK-1322","APOAPSIS":"376.313","ECCENTRICITY":"0.00084840","CLASSIFICATION_TYPE":"U","MEAN_ANOMALY":"197.1758","PERIAPSIS":"364.862","ARG_OF_PERICENTER":"162.9543","REV_AT_EPOCH":"12048","BSTAR":"0.00047038000000","MEAN_ELEMENT_THEORY":"SGP4","GP_ID":"206057846","MEAN_MOTION":"15.65922934","CENTER_NAME":"EARTH"},{"MEAN_ANOMALY":"293.2434","PERIAPSIS":"545.782","CLASSIFICATION_TYPE":"U","ECCENTRICITY":"0.00020600","APOAPSIS":"548.635","OBJECT_NAME":"STARLINK-1323","EPOCH":"2022-06-13T02:17:54.205728","TLE_LINE1":"1 45553U 20025Y   22164.09576627  .00000249  00000-0  35642-4 0  9997","RCS_SIZE":"LARGE","RA_OF_ASC_NODE":"96.9985","CENTER_NAME":"EARTH","MEAN_MOTION":"15.06401615","MEAN_ELEMENT_THEORY":"SGP4","GP_ID":"206063558","BSTAR":"0.00003564200000","ARG_OF_PERICENTER":"66.8771","REV_AT_EPOCH":"11894","LAUNCH_DATE":"2020-04-22","PERIOD":"95.592","TIME_SYSTEM":"UTC","MEAN_MOTION_DOT":"0.00000249","FILE":"3494705","NORAD_CAT_ID":"45553","SEMIMAJOR_AXIS":"6925.344","OBJECT_ID":"2020-025Y","INCLINATION":"53.0533","MEAN_MOTION_DDOT":"0.0000000000000","OBJECT_TYPE":"PAYLOAD","TLE_LINE2":"2 45553  53.0533  96.9985 0002060  66.8771 293.2434 15.06401615118941","ELEMENT_SET_NO":"999","COUNTRY_CODE":"US","SITE":"AFETR","EPHEMERIS_TYPE":"0","DECAY_DATE":null,"REF_FRAME":"TEME"},{"GP_ID":"206056345","MEAN_ELEMENT_THEORY":"SGP4","BSTAR":"-0.00001360800000","CENTER_NAME":"EARTH","MEAN_MOTION":"15.06403397","REV_AT_EPOCH":"11956","ARG_OF_PERICENTER":"61.2410","CLASSIFICATION_TYPE":"U","ECCENTRICITY":"0.00020580","MEAN_ANOMALY":"298.8786","PERIAPSIS":"545.778","RCS_SIZE":"LARGE","TLE_LINE1":"1 45554U 20025Z   22164.22014237 -.00000484  00000-0 -13608-4 0  9998","EPOCH":"2022-06-13T05:17:00.300768","RA_OF_ASC_NODE":"96.4262","APOAPSIS":"548.628","OBJECT_NAME":"STARLINK-1325","COUNTRY_CODE":"US","ELEMENT_SET_NO":"999","TLE_LINE2":"2 45554  53.0560  96.4262 0002058  61.2410 298.8786 15.06403397119560","OBJECT_TYPE":"PAYLOAD","DECAY_DATE":null,"REF_FRAME":"TEME","EPHEMERIS_TYPE":"0","SITE":"AFETR","PERIOD":"95.592","MEAN_MOTION_DOT":"-0.00000484","TIME_SYSTEM":"UTC","LAUNCH_DATE":"2020-04-22","MEAN_MOTION_DDOT":"0.0000000000000","OBJECT_ID":"2020-025Z","INCLINATION":"53.0560","SEMIMAJOR_AXIS":"6925.338","FILE":"3494620","NORAD_CAT_ID":"45554"}];
